[{"OBJECT_NAME":"STARLINK-3958","OBJECT_ID":"2022-051C","EPOCH":"2026-03-09T10:40:58.759392","MEAN_MOTION":15.08841247,"ECCENTRICITY":0.00013947,"INCLINATION":53.2168,"RA_OF_ASC_NODE":130.2192,"ARG_OF_PERICENTER":97.0236,"MEAN_ANOMALY":263.0915,"EPHEMERIS_TYPE":0,"CLASSIFICATION_TYPE":"U","NORAD_CAT_ID":52535,"ELEMENT_SET_NO":999,"REV_AT_EPOCH":21140,"BSTAR":-1.7436991e-5,"MEAN_MOTION_DOT":-5.65e-6,"MEAN_MOTION_DDOT":0},{"OBJECT_NAME":"COSMOS 886 DEB","OBJECT_ID":"1976-126CG","EPOCH":"2026-03-09T13:42:09.387072","MEAN_MOTION":14.65936144,"ECCENTRICITY":0.0273927,"INCLINATION":65.5637,"RA_OF_ASC_NODE":138.088,"ARG_OF_PERICENTER":273.4033,"MEAN_ANOMALY":83.5779,"EPHEMERIS_TYPE":0,"CLASSIFICATION_TYPE":"U","NORAD_CAT_ID":20673,"ELEMENT_SET_NO":999,"REV_AT_EPOCH":71273,"BSTAR":0.0023391,"MEAN_MOTION_DOT":0.00022449,"MEAN_MOTION_DDOT":0}]
